48076,ONEWEB-0108,2021,109.63,148.0,+,87.9,Active,1,LEO,Russia,UK,Commercial,Communications,Soyuz,1 48076U 21025AL  24022.27129199 -.00000253  00000+0 -72883-3 0  9997,2 48076  87.9011 134.7723 0001605 117.3627 242.7666 13.13470677138531,13.13470677,0.0001605,LEO
48077,ONEWEB-0169,2021,109.63,148.0,+,87.9,Active,1,LEO,Russia,UK,Commercial,Communications,Soyuz,1 48077U 21025AM  24022.30306354  .00000372  00000+0  98250-3 0  9998,2 48077  87.9013 134.7723 0001514 117.0901 243.0382 13.13472568137196,13.13472568,0.0001514,LEO
48210,ONEWEB-0176,2021,109.55,148.0,+,87.9,Active,1,LEO,Russia,UK,Commercial,Communications,Soyuz,1 48210U 21031A   24022.30210178  .00000107  00000+0  25336-3 0  9993,2 48210  87.8975 104.2429 0001821 105.7235 254.4096 13.14501313133119,13.14501313,0.0001821,LEO
48211,ONEWEB-0184,2021,109.55,148.0,+,87.9,Active,1,LEO,Russia,UK,Commercial,Communications,Soyuz,1 48211U 21031B   24022.27515118  .00000136  00000+0  33147-3 0  9993,2 48211  87.8968 104.2366 0002806  94.0807 266.0643 13.14502306133087,13.14502306,0.0002806,LEO
48212,ONEWEB-0179,2021,109.55,148.0,+,87.9,Active,1,LEO,Russia,UK,Commercial,Communications,Soyuz,1 48212U 21031C   24022.24500903 -.00000107  00000+0 -32307-3 0  9994,2 48212  87.8976 104.2403 0001675  99.7144 260.4175 13.14501970133127,13.1450197,0.0001675,LEO
48213,ONEWEB-0180,2021,109.55,148.0,+,87.9,Active,1,LEO,Russia,UK,Commercial,Communications,Soyuz,1 48213U 21031D   24022.27830783  .00000163  00000+0  40417-3 0  9991,2 48213  87.8969 104.2356 0001686  96.5138 263.6184 13.14505347133012,13.14505347,0.0001686,LEO
48214,ONEWEB-0218,2021,109.55,148.0,+,87.9,Active,1,LEO,Russia,UK,Commercial,Communications,Soyuz,1 48214U 21031E   24022.30051960  .00000148  00000+0  36570-3 0  9996,2 48214  87.8972 104.2335 0002744  85.9187 274.2256 13.14503861133170,13.14503861,0.0002744,LEO
48215,ONEWEB-0209,2021,109.55,148.0,+,87.9,Active,1,LEO,Russia,UK,Commercial,Communications,Soyuz,1 48215U 21031F   24022.28944021  .00000266  00000+0  68217-3 0  9997,2 48215  87.8963 104.2660 0001596 100.9167 259.2142 13.14495311133179,13.14495311,0.0001596,LEO
